[
    {
        "OBJECT_NAME": "COSMOS 2219",
        "OBJECT_ID": "1992-076A",
        "EPOCH": "2026-06-20T10:40:08.992128",
        "MEAN_MOTION": 14.14101263,
        "ECCENTRICITY": 0.0016764,
        "INCLINATION": 71.0582,
        "RA_OF_ASC_NODE": 163.2619,
        "ARG_OF_PERICENTER": 38.9003,
        "MEAN_ANOMALY": 321.3322,
        "EPHEMERIS_TYPE": 0,
        "CLASSIFICATION_TYPE": "U",
        "NORAD_CAT_ID": 22219,
        "ELEMENT_SET_NO": 999,
        "REV_AT_EPOCH": 73290,
        "BSTAR": 0.00019868,
        "MEAN_MOTION_DOT": 3.32e-06,
        "MEAN_MOTION_DDOT": 0
    },
    {
        "OBJECT_NAME": "SL-16 R/B",
        "OBJECT_ID": "1992-076B",
        "EPOCH": "2026-06-20T09:52:48.575712",
        "MEAN_MOTION": 14.1687396,
        "ECCENTRICITY": 0.0014765,
        "INCLINATION": 71.0008,
        "RA_OF_ASC_NODE": 331.9882,
        "ARG_OF_PERICENTER": 294.4402,
        "MEAN_ANOMALY": 91.0889,
        "EPHEMERIS_TYPE": 0,
        "CLASSIFICATION_TYPE": "U",
        "NORAD_CAT_ID": 22220,
        "ELEMENT_SET_NO": 999,
        "REV_AT_EPOCH": 73638,
        "BSTAR": 0.00014633,
        "MEAN_MOTION_DOT": 2.46e-06,
        "MEAN_MOTION_DDOT": 0
    },
    {
        "OBJECT_NAME": "COSMOS 2221",
        "OBJECT_ID": "1992-080A",
        "EPOCH": "2026-06-20T00:20:19.529952",
        "MEAN_MOTION": 14.96539106,
        "ECCENTRICITY": 0.00135193,
        "INCLINATION": 82.5028,
        "RA_OF_ASC_NODE": 181.0561,
        "ARG_OF_PERICENTER": 202.24,
        "MEAN_ANOMALY": 157.8237,
        "EPHEMERIS_TYPE": 0,
        "CLASSIFICATION_TYPE": "U",
        "NORAD_CAT_ID": 22236,
        "ELEMENT_SET_NO": 999,
        "REV_AT_EPOCH": 79609,
        "BSTAR": 8.9563593e-05,
        "MEAN_MOTION_DOT": 1.046e-05,
        "MEAN_MOTION_DDOT": 0
    },
    {
        "OBJECT_NAME": "SL-16 R/B",
        "OBJECT_ID": "1992-093B",
        "EPOCH": "2026-06-20T08:26:44.339712",
        "MEAN_MOTION": 14.15460016,
        "ECCENTRICITY": 0.0003794,
        "INCLINATION": 71.0197,
        "RA_OF_ASC_NODE": 148.7474,
        "ARG_OF_PERICENTER": 182.3729,
        "MEAN_ANOMALY": 177.7377,
        "EPHEMERIS_TYPE": 0,
        "CLASSIFICATION_TYPE": "U",
        "NORAD_CAT_ID": 22285,
        "ELEMENT_SET_NO": 999,
        "REV_AT_EPOCH": 72768,
        "BSTAR": -6.3842e-05,
        "MEAN_MOTION_DOT": -1.72e-06,
        "MEAN_MOTION_DDOT": 0
    },
    {
        "OBJECT_NAME": "COSMOS 2228",
        "OBJECT_ID": "1992-094A",
        "EPOCH": "2026-06-20T10:16:59.132352",
        "MEAN_MOTION": 14.97596173,
        "ECCENTRICITY": 0.0016616,
        "INCLINATION": 82.5176,
        "RA_OF_ASC_NODE": 138.9381,
        "ARG_OF_PERICENTER": 320.7531,
        "MEAN_ANOMALY": 39.2486,
        "EPHEMERIS_TYPE": 0,
        "CLASSIFICATION_TYPE": "U",
        "NORAD_CAT_ID": 22286,
        "ELEMENT_SET_NO": 999,
        "REV_AT_EPOCH": 79143,
        "BSTAR": 0.00012222,
        "MEAN_MOTION_DOT": 1.457e-05,
        "MEAN_MOTION_DDOT": 0
    },
    {
        "OBJECT_NAME": "SL-16 R/B",
        "OBJECT_ID": "1993-016B",
        "EPOCH": "2026-06-19T23:29:39.205536",
        "MEAN_MOTION": 14.15315458,
        "ECCENTRICITY": 0.00100475,
        "INCLINATION": 71.0085,
        "RA_OF_ASC_NODE": 0.343,
        "ARG_OF_PERICENTER": 179.5877,
        "MEAN_ANOMALY": 180.5256,
        "EPHEMERIS_TYPE": 0,
        "CLASSIFICATION_TYPE": "U",
        "NORAD_CAT_ID": 22566,
        "ELEMENT_SET_NO": 999,
        "REV_AT_EPOCH": 71664,
        "BSTAR": 8.939248e-05,
        "MEAN_MOTION_DOT": 1.27e-06,
        "MEAN_MOTION_DDOT": 0
    },
    {
        "OBJECT_NAME": "COSMOS 2242",
        "OBJECT_ID": "1993-024A",
        "EPOCH": "2026-06-20T10:56:58.479360",
        "MEAN_MOTION": 14.96911702,
        "ECCENTRICITY": 0.0015063,
        "INCLINATION": 82.5178,
        "RA_OF_ASC_NODE": 168.4151,
        "ARG_OF_PERICENTER": 324.6163,
        "MEAN_ANOMALY": 35.4058,
        "EPHEMERIS_TYPE": 0,
        "CLASSIFICATION_TYPE": "U",
        "NORAD_CAT_ID": 22626,
        "ELEMENT_SET_NO": 999,
        "REV_AT_EPOCH": 79576,
        "BSTAR": 0.0001093,
        "MEAN_MOTION_DOT": 1.283e-05,
        "MEAN_MOTION_DDOT": 0
    },
    {
        "OBJECT_NAME": "SL-16 R/B",
        "OBJECT_ID": "1993-059B",
        "EPOCH": "2026-06-20T09:12:32.073984",
        "MEAN_MOTION": 14.17247821,
        "ECCENTRICITY": 0.0015335,
        "INCLINATION": 70.9886,
        "RA_OF_ASC_NODE": 154.5628,
        "ARG_OF_PERICENTER": 48.5639,
        "MEAN_ANOMALY": 311.6799,
        "EPHEMERIS_TYPE": 0,
        "CLASSIFICATION_TYPE": "U",
        "NORAD_CAT_ID": 22803,
        "ELEMENT_SET_NO": 999,
        "REV_AT_EPOCH": 69408,
        "BSTAR": -7.0101e-05,
        "MEAN_MOTION_DOT": -1.9e-06,
        "MEAN_MOTION_DDOT": 0
    },
    {
        "OBJECT_NAME": "ARIANE 40 R/B",
        "OBJECT_ID": "1993-061H",
        "EPOCH": "2026-06-20T10:01:11.199936",
        "MEAN_MOTION": 14.32909026,
        "ECCENTRICITY": 0.0010251,
        "INCLINATION": 98.4818,
        "RA_OF_ASC_NODE": 238.2075,
        "ARG_OF_PERICENTER": 346.6122,
        "MEAN_ANOMALY": 13.4789,
        "EPHEMERIS_TYPE": 0,
        "CLASSIFICATION_TYPE": "U",
        "NORAD_CAT_ID": 22830,
        "ELEMENT_SET_NO": 999,
        "REV_AT_EPOCH": 70881,
        "BSTAR": 5.8943e-05,
        "MEAN_MOTION_DOT": 1.18e-06,
        "MEAN_MOTION_DDOT": 0
    },
    {
        "OBJECT_NAME": "COSMOS 2278",
        "OBJECT_ID": "1994-023A",
        "EPOCH": "2026-06-20T08:36:32.640768",
        "MEAN_MOTION": 14.14398795,
        "ECCENTRICITY": 0.0010591,
        "INCLINATION": 71.0551,
        "RA_OF_ASC_NODE": 320.2888,
        "ARG_OF_PERICENTER": 239.735,
        "MEAN_ANOMALY": 120.2725,
        "EPHEMERIS_TYPE": 0,
        "CLASSIFICATION_TYPE": "U",
        "NORAD_CAT_ID": 23087,
        "ELEMENT_SET_NO": 999,
        "REV_AT_EPOCH": 65932,
        "BSTAR": 2.4726e-05,
        "MEAN_MOTION_DOT": 0,
        "MEAN_MOTION_DDOT": 0
    },
    {
        "OBJECT_NAME": "SL-16 R/B",
        "OBJECT_ID": "1994-023B",
        "EPOCH": "2026-06-20T10:18:51.104160",
        "MEAN_MOTION": 14.15026873,
        "ECCENTRICITY": 0.0002542,
        "INCLINATION": 70.9991,
        "RA_OF_ASC_NODE": 215.1217,
        "ARG_OF_PERICENTER": 184.3948,
        "MEAN_ANOMALY": 175.7153,
        "EPHEMERIS_TYPE": 0,
        "CLASSIFICATION_TYPE": "U",
        "NORAD_CAT_ID": 23088,
        "ELEMENT_SET_NO": 999,
        "REV_AT_EPOCH": 66062,
        "BSTAR": 7.807e-05,
        "MEAN_MOTION_DOT": 1.04e-06,
        "MEAN_MOTION_DDOT": 0
    },
    {
        "OBJECT_NAME": "SL-16 R/B",
        "OBJECT_ID": "1994-074B",
        "EPOCH": "2026-06-20T07:35:49.836192",
        "MEAN_MOTION": 14.79504472,
        "ECCENTRICITY": 0.0005247,
        "INCLINATION": 97.6989,
        "RA_OF_ASC_NODE": 197.9072,
        "ARG_OF_PERICENTER": 240.4341,
        "MEAN_ANOMALY": 130.3782,
        "EPHEMERIS_TYPE": 0,
        "CLASSIFICATION_TYPE": "U",
        "NORAD_CAT_ID": 23343,
        "ELEMENT_SET_NO": 999,
        "REV_AT_EPOCH": 70242,
        "BSTAR": 4.3463e-05,
        "MEAN_MOTION_DOT": 2.76e-06,
        "MEAN_MOTION_DDOT": 0
    },
    {
        "OBJECT_NAME": "SL-16 R/B",
        "OBJECT_ID": "1994-077B",
        "EPOCH": "2026-06-20T07:12:52.372224",
        "MEAN_MOTION": 14.15573502,
        "ECCENTRICITY": 0.0003056,
        "INCLINATION": 70.9814,
        "RA_OF_ASC_NODE": 136.6122,
        "ARG_OF_PERICENTER": 325.7412,
        "MEAN_ANOMALY": 34.3513,
        "EPHEMERIS_TYPE": 0,
        "CLASSIFICATION_TYPE": "U",
        "NORAD_CAT_ID": 23405,
        "ELEMENT_SET_NO": 999,
        "REV_AT_EPOCH": 63075,
        "BSTAR": 0.00015098,
        "MEAN_MOTION_DOT": 2.48e-06,
        "MEAN_MOTION_DDOT": 0
    }
]