COSMOS 2219             
1 22219U 92076A   26171.44454852  .00000332  00000+0  19868-3 0  9995
2 22219  71.0582 163.2619 0016764  38.9003 321.3322 14.14101263732906
SL-16 R/B               
1 22220U 92076B   26171.41167333  .00000246  00000+0  14633-3 0  9998
2 22220  71.0008 331.9882 0014765 294.4402  91.0889 14.16873960736385
COSMOS 2221             
1 22236U 92080A   26171.01411493  .00001046  00000+0  89564-4 0  9990
2 22236  82.5028 181.0561 0013519 202.2400 157.8237 14.96539106796091
SL-16 R/B               
1 22285U 92093B   26171.35190208 -.00000172  00000+0 -63842-4 0  9995
2 22285  71.0197 148.7474 0003794 182.3729 177.7377 14.15460016727683
COSMOS 2228             
1 22286U 92094A   26171.42846218  .00001457  00000+0  12222-3 0  9994
2 22286  82.5176 138.9381 0016616 320.7531  39.2486 14.97596173791433
SL-16 R/B               
1 22566U 93016B   26170.97892599  .00000127  00000+0  89392-4 0  9998
2 22566  71.0085   0.3430 0010047 179.5877 180.5256 14.15315458716648
COSMOS 2242             
1 22626U 93024A   26171.45623240  .00001283  00000+0  10930-3 0  9998
2 22626  82.5178 168.4151 0015063 324.6163  35.4058 14.96911702795766
SL-16 R/B               
1 22803U 93059B   26171.38370456 -.00000190  00000+0 -70101-4 0  9998
2 22803  70.9886 154.5628 0015335  48.5639 311.6799 14.17247821694088
ARIANE 40 R/B           
1 22830U 93061H   26171.41749074  .00000118  00000+0  58943-4 0  9999
2 22830  98.4818 238.2075 0010251 346.6122  13.4789 14.32909026708817
COSMOS 2278             
1 23087U 94023A   26171.35871112  .00000000  00000+0  24726-4 0  9997
2 23087  71.0551 320.2888 0010591 239.7350 120.2725 14.14398795659322
SL-16 R/B               
1 23088U 94023B   26171.42975815  .00000104  00000+0  78070-4 0  9997
2 23088  70.9991 215.1217 0002542 184.3948 175.7153 14.15026873660623
SL-16 R/B               
1 23343U 94074B   26171.31654903  .00000276  00000+0  43463-4 0  9995
2 23343  97.6989 197.9072 0005247 240.4341 130.3782 14.79504472702428
SL-16 R/B               
1 23405U 94077B   26171.30060616  .00000248  00000+0  15098-3 0  9999
2 23405  70.9814 136.6122 0003056 325.7412  34.3513 14.15573502630757
